[{"OBJECT_NAME":"STARLINK-31907","OBJECT_ID":"2024-093R","EPOCH":"2026-03-09T10:04:01.089120","MEAN_MOTION":15.2757202,"ECCENTRICITY":7.369e-5,"INCLINATION":42.9953,"RA_OF_ASC_NODE":210.4553,"ARG_OF_PERICENTER":122.8911,"MEAN_ANOMALY":237.2012,"EPHEMERIS_TYPE":0,"CLASSIFICATION_TYPE":"U","NORAD_CAT_ID":59797,"ELEMENT_SET_NO":999,"REV_AT_EPOCH":10265,"BSTAR":-2.519398e-6,"MEAN_MOTION_DOT":-3.31e-6,"MEAN_MOTION_DDOT":0},{"OBJECT_NAME":"CZ-6A DEB","OBJECT_ID":"2022-151EM","EPOCH":"2026-03-09T21:12:10.844640","MEAN_MOTION":15.1479521,"ECCENTRICITY":0.00732342,"INCLINATION":98.809,"RA_OF_ASC_NODE":212.6624,"ARG_OF_PERICENTER":10.5605,"MEAN_ANOMALY":349.714,"EPHEMERIS_TYPE":0,"CLASSIFICATION_TYPE":"U","NORAD_CAT_ID":54413,"ELEMENT_SET_NO":999,"REV_AT_EPOCH":17915,"BSTAR":0.0020661814,"MEAN_MOTION_DOT":0.00041137,"MEAN_MOTION_DDOT":0}]
